{
  "type": "FeatureCollection",
  "features": [
    {
      "type": "Feature",
      "properties": {
        "norad_id": 64202,
        "name": "GPS BIII-8  (PRN 21)",
        "group": "gnss",
        "lat": 16.77750190000614,
        "lon": 50.960779828737536,
        "alt_km": 20176.745167622867,
        "timestamp": "2025-12-08T15:42:50.034524+00:00",
        "meta_object_name": "GPS BIII-8  (PRN 21)",
        "meta_object_id": "2025-116A",
        "meta_epoch": "2025-12-08T05:53:38.601888",
        "meta_mean_motion": 2.0055836,
        "meta_eccentricity": 0.00052097,
        "meta_inclination": 55.1026,
        "meta_ra_of_asc_node": 38.8223,
        "meta_arg_of_pericenter": 307.4427,
        "meta_mean_anomaly": 137.7304,
        "meta_ephemeris_type": 0,
        "meta_classification_type": "U",
        "meta_norad_cat_id": 64202,
        "meta_element_set_no": 999,
        "meta_rev_at_epoch": 404,
        "meta_bstar": 0,
        "meta_mean_motion_dot": -7.9e-07,
        "meta_mean_motion_ddot": 0,
        "tle_line1": "1 64202U 25116A   25342.24558567 -.00000079  00000+0  00000+0 0  9992",
        "tle_line2": "2 64202  55.1026  38.8223 0005209 307.4427 137.7304  2.00558360  4046"
      },
      "geometry": {
        "type": "Point",
        "coordinates": [
          50.960779828737536,
          16.77750190000614
        ]
      }
    },
    {
      "type": "Feature",
      "properties": {
        "norad_id": 65590,
        "name": "COSMOS 2596 (708K)",
        "group": "gnss",
        "lat": 32.223314471163995,
        "lon": 124.29934625460001,
        "alt_km": 19160.227777361684,
        "timestamp": "2025-12-08T15:42:50.034535+00:00",
        "meta_object_name": "COSMOS 2596 (708K)",
        "meta_object_id": "2025-206B",
        "meta_epoch": "2025-12-08T01:45:50.514048",
        "meta_mean_motion": 2.13100236,
        "meta_eccentricity": 0.00139998,
        "meta_inclination": 64.7469,
        "meta_ra_of_asc_node": 321.6359,
        "meta_arg_of_pericenter": 305.2634,
        "meta_mean_anomaly": 112.6949,
        "meta_ephemeris_type": 0,
        "meta_classification_type": "U",
        "meta_norad_cat_id": 65590,
        "meta_element_set_no": 999,
        "meta_rev_at_epoch": 184,
        "meta_bstar": 0,
        "meta_mean_motion_dot": -5.1e-07,
        "meta_mean_motion_ddot": 0,
        "tle_line1": "1 65590U 25206B   25342.07350132 -.00000051  00000+0  00000+0 0  9992",
        "tle_line2": "2 65590  64.7469 321.6359 0013999 305.2634 112.6949  2.13100236  1849"
      },
      "geometry": {
        "type": "Point",
        "coordinates": [
          124.29934625460001,
          32.223314471163995
        ]
      }
    }
  ]
}